{
  "type": "FeatureCollection",
  "features": [
    {
      "type": "Feature",
      "properties": {
        "norad_id": 66379,
        "name": "SHIYAN-32 03",
        "group": "last-30-days",
        "lat": 51.07471275684591,
        "lon": -31.42139224830392,
        "alt_km": 430.4450333261084,
        "timestamp": "2025-12-04T09:47:36.301060+00:00",
        "meta_object_name": "SHIYAN-32 03",
        "meta_object_id": "2025-255D",
        "meta_epoch": "2025-12-03T19:21:23.378976",
        "meta_mean_motion": 15.42657531,
        "meta_eccentricity": 0.00154748,
        "meta_inclination": 52.997,
        "meta_ra_of_asc_node": 220.4749,
        "meta_arg_of_pericenter": 15.5245,
        "meta_mean_anomaly": 344.6231,
        "meta_ephemeris_type": 0,
        "meta_classification_type": "U",
        "meta_norad_cat_id": 66379,
        "meta_element_set_no": 999,
        "meta_rev_at_epoch": 385,
        "meta_bstar": 0.00067886284,
        "meta_mean_motion_dot": 0.00029862,
        "meta_mean_motion_ddot": 0,
        "tle_line1": "1 66379U 25255D   25337.80652059  .00029862  00000+0  67886-3 0  9999",
        "tle_line2": "2 66379  52.9970 220.4749 0015474  15.5245 344.6231 15.42657531  3854"
      },
      "geometry": {
        "type": "Point",
        "coordinates": [
          -31.42139224830392,
          51.07471275684591
        ]
      }
    },
    {
      "type": "Feature",
      "properties": {
        "norad_id": 66380,
        "name": "STARLINK-35139",
        "group": "last-30-days",
        "lat": 28.25607170750409,
        "lon": -32.32552598867807,
        "alt_km": 443.4687931506005,
        "timestamp": "2025-12-04T09:47:36.301071+00:00",
        "meta_object_name": "STARLINK-35139",
        "meta_object_id": "2025-257A",
        "meta_epoch": "2025-12-03T22:00:03.000096",
        "meta_mean_motion": 15.39648246,
        "meta_eccentricity": 0.00012596,
        "meta_inclination": 53.1588,
        "meta_ra_of_asc_node": 306.2273,
        "meta_arg_of_pericenter": 92.7303,
        "meta_mean_anomaly": 98.6755,
        "meta_ephemeris_type": 0,
        "meta_classification_type": "U",
        "meta_norad_cat_id": 66380,
        "meta_element_set_no": 999,
        "meta_rev_at_epoch": 501,
        "meta_bstar": -0.0011615638,
        "meta_mean_motion_dot": -0.0004662,
        "meta_mean_motion_ddot": 0,
        "tle_line1": "1 66380U 25257A   25337.91670139 -.00046620  00000+0 -11616-2 0  9996",
        "tle_line2": "2 66380  53.1588 306.2273 0001259  92.7303  98.6755 15.39648246  5013"
      },
      "geometry": {
        "type": "Point",
        "coordinates": [
          -32.32552598867807,
          28.25607170750409
        ]
      }
    },
    {
      "type": "Feature",
      "properties": {
        "norad_id": 66381,
        "name": "STARLINK-35158",
        "group": "last-30-days",
        "lat": 29.591125777272502,
        "lon": -30.893941746465668,
        "alt_km": 443.25196624585897,
        "timestamp": "2025-12-04T09:47:36.301084+00:00",
        "meta_object_name": "STARLINK-35158",
        "meta_object_id": "2025-257B",
        "meta_epoch": "2025-12-03T22:00:03.000096",
        "meta_mean_motion": 15.3966548,
        "meta_eccentricity": 0.00013348,
        "meta_inclination": 53.1588,
        "meta_ra_of_asc_node": 306.2231,
        "meta_arg_of_pericenter": 95.5265,
        "meta_mean_anomaly": 97.7003,
        "meta_ephemeris_type": 0,
        "meta_classification_type": "U",
        "meta_norad_cat_id": 66381,
        "meta_element_set_no": 999,
        "meta_rev_at_epoch": 507,
        "meta_bstar": -0.0017140377,
        "meta_mean_motion_dot": -0.00068449,
        "meta_mean_motion_ddot": 0,
        "tle_line1": "1 66381U 25257B   25337.91670139 -.00068449  00000+0 -17140-2 0  9998",
        "tle_line2": "2 66381  53.1588 306.2231 0001334  95.5265  97.7003 15.39665480  5071"
      },
      "geometry": {
        "type": "Point",
        "coordinates": [
          -30.893941746465668,
          29.591125777272502
        ]
      }
    },
    {
      "type": "Feature",
      "properties": {
        "norad_id": 66382,
        "name": "STARLINK-35639",
        "group": "last-30-days",
        "lat": 44.96695152480815,
        "lon": -7.649605330679639,
        "alt_km": 440.7377556296433,
        "timestamp": "2025-12-04T09:47:36.301094+00:00",
        "meta_object_name": "STARLINK-35639",
        "meta_object_id": "2025-257C",
        "meta_epoch": "2025-12-03T22:00:03.000096",
        "meta_mean_motion": 15.39663845,
        "meta_eccentricity": 0.00014171,
        "meta_inclination": 53.1594,
        "meta_ra_of_asc_node": 306.1739,
        "meta_arg_of_pericenter": 108.9121,
        "meta_mean_anomaly": 108.2336,
        "meta_ephemeris_type": 0,
        "meta_classification_type": "U",
        "meta_norad_cat_id": 66382,
        "meta_element_set_no": 999,
        "meta_rev_at_epoch": 507,
        "meta_bstar": -0.0023145066,
        "meta_mean_motion_dot": -0.00092002,
        "meta_mean_motion_ddot": 0,
        "tle_line1": "1 66382U 25257C   25337.91670139 -.00092002  00000+0 -23145-2 0  9993",
        "tle_line2": "2 66382  53.1594 306.1739 0001417 108.9121 108.2336 15.39663845  5073"
      },
      "geometry": {
        "type": "Point",
        "coordinates": [
          -7.649605330679639,
          44.96695152480815
        ]
      }
    },
    {
      "type": "Feature",
      "properties": {
        "norad_id": 66383,
        "name": "STARLINK-35690",
        "group": "last-30-days",
        "lat": 53.08417215132929,
        "lon": 30.150873533106477,
        "alt_km": 439.16232236231554,
        "timestamp": "2025-12-04T09:47:36.301104+00:00",
        "meta_object_name": "STARLINK-35690",
        "meta_object_id": "2025-257D",
        "meta_epoch": "2025-12-03T22:00:03.000096",
        "meta_mean_motion": 15.39610921,
        "meta_eccentricity": 0.00015633,
        "meta_inclination": 53.1597,
        "meta_ra_of_asc_node": 306.1227,
        "meta_arg_of_pericenter": 107.0415,
        "meta_mean_anomaly": 135.8494,
        "meta_ephemeris_type": 0,
        "meta_classification_type": "U",
        "meta_norad_cat_id": 66383,
        "meta_element_set_no": 999,
        "meta_rev_at_epoch": 507,
        "meta_bstar": -0.0003106378,
        "meta_mean_motion_dot": -0.000128,
        "meta_mean_motion_ddot": 0,
        "tle_line1": "1 66383U 25257D   25337.91670139 -.00012800  00000+0 -31064-3 0  9992",
        "tle_line2": "2 66383  53.1597 306.1227 0001563 107.0415 135.8494 15.39610921  5075"
      },
      "geometry": {
        "type": "Point",
        "coordinates": [
          30.150873533106477,
          53.08417215132929
        ]
      }
    },
    {
      "type": "Feature",
      "properties": {
        "norad_id": 66384,
        "name": "STARLINK-35662",
        "group": "last-30-days",
        "lat": 53.13926770586918,
        "lon": 33.3056337795729,
        "alt_km": 439.07021624914796,
        "timestamp": "2025-12-04T09:47:36.301115+00:00",
        "meta_object_name": "STARLINK-35662",
        "meta_object_id": "2025-257E",
        "meta_epoch": "2025-12-03T22:00:03.000096",
        "meta_mean_motion": 15.39680663,
        "meta_eccentricity": 0.00015804,
        "meta_inclination": 53.1598,
        "meta_ra_of_asc_node": 306.1199,
        "meta_arg_of_pericenter": 99.6725,
        "meta_mean_anomaly": 145.0392,
        "meta_ephemeris_type": 0,
        "meta_classification_type": "U",
        "meta_norad_cat_id": 66384,
        "meta_element_set_no": 999,
        "meta_rev_at_epoch": 507,
        "meta_bstar": -0.0018624707,
        "meta_mean_motion_dot": -0.00074324,
        "meta_mean_motion_ddot": 0,
        "tle_line1": "1 66384U 25257E   25337.91670139 -.00074324  00000+0 -18625-2 0  9999",
        "tle_line2": "2 66384  53.1598 306.1199 0001580  99.6725 145.0392 15.39680663  5074"
      },
      "geometry": {
        "type": "Point",
        "coordinates": [
          33.3056337795729,
          53.13926770586918
        ]
      }
    },
    {
      "type": "Feature",
      "properties": {
        "norad_id": 66385,
        "name": "STARLINK-35659",
        "group": "last-30-days",
        "lat": 45.93187074799062,
        "lon": -5.382559901263378,
        "alt_km": 440.36385393722776,
        "timestamp": "2025-12-04T09:47:36.301125+00:00",
        "meta_object_name": "STARLINK-35659",
        "meta_object_id": "2025-257F",
        "meta_epoch": "2025-12-03T22:00:03.000096",
        "meta_mean_motion": 15.39668663,
        "meta_eccentricity": 0.00014635,
        "meta_inclination": 53.1594,
        "meta_ra_of_asc_node": 306.1714,
        "meta_arg_of_pericenter": 101.7333,
        "meta_mean_anomaly": 117.235,
        "meta_ephemeris_type": 0,
        "meta_classification_type": "U",
        "meta_norad_cat_id": 66385,
        "meta_element_set_no": 999,
        "meta_rev_at_epoch": 507,
        "meta_bstar": -0.0015577003,
        "meta_mean_motion_dot": -0.00062299,
        "meta_mean_motion_ddot": 0,
        "tle_line1": "1 66385U 25257F   25337.91670139 -.00062299  00000+0 -15577-2 0  9991",
        "tle_line2": "2 66385  53.1594 306.1714 0001463 101.7333 117.2350 15.39668663  5075"
      },
      "geometry": {
        "type": "Point",
        "coordinates": [
          -5.382559901263378,
          45.93187074799062
        ]
      }
    }
  ]
}